[{"OBJECT_NAME":"COSMOS 2251 DEB","OBJECT_ID":"1993-036ACB","EPOCH":"2026-03-02T18:10:01.627392","MEAN_MOTION":14.59679969,"ECCENTRICITY":0.0063369,"INCLINATION":74.0163,"RA_OF_ASC_NODE":314.1053,"ARG_OF_PERICENTER":58.1836,"MEAN_ANOMALY":358.9573,"EPHEMERIS_TYPE":0,"CLASSIFICATION_TYPE":"U","NORAD_CAT_ID":34857,"ELEMENT_SET_NO":999,"REV_AT_EPOCH":89068,"BSTAR":0.00089868,"MEAN_MOTION_DOT":4.377e-5,"MEAN_MOTION_DDOT":0},{"OBJECT_NAME":"COSMOS 2251 DEB","OBJECT_ID":"1993-036ACD","EPOCH":"2026-03-02T17:27:10.175040","MEAN_MOTION":15.31004666,"ECCENTRICITY":0.0013169,"INCLINATION":74.0279,"RA_OF_ASC_NODE":171.6224,"ARG_OF_PERICENTER":327.6622,"MEAN_ANOMALY":32.3773,"EPHEMERIS_TYPE":0,"CLASSIFICATION_TYPE":"U","NORAD_CAT_ID":34859,"ELEMENT_SET_NO":999,"REV_AT_EPOCH":89575,"BSTAR":0.0066018,"MEAN_MOTION_DOT":0.00203727,"MEAN_MOTION_DDOT":0},{"OBJECT_NAME":"COSMOS 2251 DEB","OBJECT_ID":"1993-036ACF","EPOCH":"2026-03-02T13:19:26.102208","MEAN_MOTION":15.127618,"ECCENTRICITY":0.0003266,"INCLINATION":74.0142,"RA_OF_ASC_NODE":246.5822,"ARG_OF_PERICENTER":238.6359,"MEAN_ANOMALY":177.5162,"EPHEMERIS_TYPE":0,"CLASSIFICATION_TYPE":"U","NORAD_CAT_ID":34861,"ELEMENT_SET_NO":999,"REV_AT_EPOCH":89295,"BSTAR":0.0026502,"MEAN_MOTION_DOT":0.00046761,"MEAN_MOTION_DDOT":0},{"OBJECT_NAME":"COSMOS 2251 DEB","OBJECT_ID":"1993-036ACM","EPOCH":"2026-03-02T16:00:24.746112","MEAN_MOTION":14.36821364,"ECCENTRICITY":0.0051998,"INCLINATION":74.0381,"RA_OF_ASC_NODE":286.9153,"ARG_OF_PERICENTER":292.5459,"MEAN_ANOMALY":126.2323,"EPHEMERIS_TYPE":0,"CLASSIFICATION_TYPE":"U","NORAD_CAT_ID":34874,"ELEMENT_SET_NO":999,"REV_AT_EPOCH":88192,"BSTAR":0.00075265,"MEAN_MOTION_DOT":2.232e-5,"MEAN_MOTION_DDOT":0},{"OBJECT_NAME":"COSMOS 2251 DEB","OBJECT_ID":"1993-036ACN","EPOCH":"2026-03-02T14:39:35.002656","MEAN_MOTION":14.49248496,"ECCENTRICITY":0.0013966,"INCLINATION":74.0464,"RA_OF_ASC_NODE":8.5274,"ARG_OF_PERICENTER":117.3571,"MEAN_ANOMALY":62.9721,"EPHEMERIS_TYPE":0,"CLASSIFICATION_TYPE":"U","NORAD_CAT_ID":34875,"ELEMENT_SET_NO":999,"REV_AT_EPOCH":88912,"BSTAR":0.00052091,"MEAN_MOTION_DOT":1.961e-5,"MEAN_MOTION_DDOT":0},{"OBJECT_NAME":"COSMOS 2251 DEB","OBJECT_ID":"1993-036ACR","EPOCH":"2026-02-28T23:20:11.155776","MEAN_MOTION":13.44293218,"ECCENTRICITY":0.0435497,"INCLINATION":73.9631,"RA_OF_ASC_NODE":283.1849,"ARG_OF_PERICENTER":251.7923,"MEAN_ANOMALY":172.7325,"EPHEMERIS_TYPE":0,"CLASSIFICATION_TYPE":"U","NORAD_CAT_ID":34878,"ELEMENT_SET_NO":999,"REV_AT_EPOCH":82324,"BSTAR":0.00024698,"MEAN_MOTION_DOT":2.3e-6,"MEAN_MOTION_DDOT":0},{"OBJECT_NAME":"COSMOS 2251 DEB","OBJECT_ID":"1993-036ACV","EPOCH":"2026-03-02T10:43:54.045984","MEAN_MOTION":14.61776208,"ECCENTRICITY":0.00828502,"INCLINATION":74.044,"RA_OF_ASC_NODE":73.1665,"ARG_OF_PERICENTER":181.6409,"MEAN_ANOMALY":178.45,"EPHEMERIS_TYPE":0,"CLASSIFICATION_TYPE":"U","NORAD_CAT_ID":34882,"ELEMENT_SET_NO":999,"REV_AT_EPOCH":89689,"BSTAR":0.00016072037,"MEAN_MOTION_DOT":8.09e-6,"MEAN_MOTION_DDOT":0},{"OBJECT_NAME":"COSMOS 2251 DEB","OBJECT_ID":"1993-036ACW","EPOCH":"2026-03-02T14:03:29.054016","MEAN_MOTION":14.53986948,"ECCENTRICITY":0.009148,"INCLINATION":74.1971,"RA_OF_ASC_NODE":273.5948,"ARG_OF_PERICENTER":73.6708,"MEAN_ANOMALY":287.4491,"EPHEMERIS_TYPE":0,"CLASSIFICATION_TYPE":"U","NORAD_CAT_ID":34883,"ELEMENT_SET_NO":999,"REV_AT_EPOCH":87599,"BSTAR":0.003719,"MEAN_MOTION_DOT":0.00016582,"MEAN_MOTION_DDOT":0},{"OBJECT_NAME":"COSMOS 2251 DEB","OBJECT_ID":"1993-036ACX","EPOCH":"2026-03-02T16:37:08.736672","MEAN_MOTION":14.95035574,"ECCENTRICITY":0.0003247,"INCLINATION":74.0128,"RA_OF_ASC_NODE":255.9127,"ARG_OF_PERICENTER":304.9926,"MEAN_ANOMALY":132.8556,"EPHEMERIS_TYPE":0,"CLASSIFICATION_TYPE":"U","NORAD_CAT_ID":34884,"ELEMENT_SET_NO":999,"REV_AT_EPOCH":88998,"BSTAR":0.0026774,"MEAN_MOTION_DOT":0.000294,"MEAN_MOTION_DDOT":0},{"OBJECT_NAME":"COSMOS 2251 DEB","OBJECT_ID":"1993-036ACY","EPOCH":"2026-03-02T08:24:31.470336","MEAN_MOTION":14.52041283,"ECCENTRICITY":0.00121583,"INCLINATION":74.0317,"RA_OF_ASC_NODE":33.0514,"ARG_OF_PERICENTER":105.2698,"MEAN_ANOMALY":17.8871,"EPHEMERIS_TYPE":0,"CLASSIFICATION_TYPE":"U","NORAD_CAT_ID":34885,"ELEMENT_SET_NO":999,"REV_AT_EPOCH":88634,"BSTAR":0.00090859756,"MEAN_MOTION_DOT":3.651e-5,"MEAN_MOTION_DDOT":0},{"OBJECT_NAME":"COSMOS 2251 DEB","OBJECT_ID":"1993-036ACZ","EPOCH":"2026-02-28T12:55:37.312320","MEAN_MOTION":15.57203569,"ECCENTRICITY":0.00257436,"INCLINATION":73.9475,"RA_OF_ASC_NODE":10.2626,"ARG_OF_PERICENTER":182.5911,"MEAN_ANOMALY":177.5177,"EPHEMERIS_TYPE":0,"CLASSIFICATION_TYPE":"U","NORAD_CAT_ID":34886,"ELEMENT_SET_NO":999,"REV_AT_EPOCH":64201,"BSTAR":0.0023826648,"MEAN_MOTION_DOT":0.00179856,"MEAN_MOTION_DDOT":0},{"OBJECT_NAME":"COSMOS 2251 DEB","OBJECT_ID":"1993-036ADD","EPOCH":"2026-02-28T17:43:53.900256","MEAN_MOTION":14.3771931,"ECCENTRICITY":0.00412409,"INCLINATION":74.0555,"RA_OF_ASC_NODE":240.2847,"ARG_OF_PERICENTER":239.9439,"MEAN_ANOMALY":136.6851,"EPHEMERIS_TYPE":0,"CLASSIFICATION_TYPE":"U","NORAD_CAT_ID":34908,"ELEMENT_SET_NO":999,"REV_AT_EPOCH":88400,"BSTAR":0.00056942096,"MEAN_MOTION_DOT":1.703e-5,"MEAN_MOTION_DDOT":0},{"OBJECT_NAME":"COSMOS 2251 DEB","OBJECT_ID":"1993-036ADE","EPOCH":"2026-03-02T00:30:22.641696","MEAN_MOTION":14.784875,"ECCENTRICITY":0.00822969,"INCLINATION":74.0121,"RA_OF_ASC_NODE":280.6262,"ARG_OF_PERICENTER":34.8754,"MEAN_ANOMALY":325.7774,"EPHEMERIS_TYPE":0,"CLASSIFICATION_TYPE":"U","NORAD_CAT_ID":34909,"ELEMENT_SET_NO":999,"REV_AT_EPOCH":68023,"BSTAR":0.00044628872,"MEAN_MOTION_DOT":3.413e-5,"MEAN_MOTION_DDOT":0},{"OBJECT_NAME":"COSMOS 2251 DEB","OBJECT_ID":"1993-036ADF","EPOCH":"2026-03-02T05:25:28.344864","MEAN_MOTION":13.37819504,"ECCENTRICITY":0.04656843,"INCLINATION":73.8777,"RA_OF_ASC_NODE":335.9808,"ARG_OF_PERICENTER":81.2537,"MEAN_ANOMALY":67.308,"EPHEMERIS_TYPE":0,"CLASSIFICATION_TYPE":"U","NORAD_CAT_ID":34910,"ELEMENT_SET_NO":999,"REV_AT_EPOCH":82587,"BSTAR":0.00095346649,"MEAN_MOTION_DOT":9.22e-6,"MEAN_MOTION_DDOT":0},{"OBJECT_NAME":"COSMOS 2251 DEB","OBJECT_ID":"1993-036ADG","EPOCH":"2026-03-02T09:56:57.253056","MEAN_MOTION":14.59509377,"ECCENTRICITY":0.00842633,"INCLINATION":74.0387,"RA_OF_ASC_NODE":92.8787,"ARG_OF_PERICENTER":199.8394,"MEAN_ANOMALY":223.1742,"EPHEMERIS_TYPE":0,"CLASSIFICATION_TYPE":"U","NORAD_CAT_ID":34911,"ELEMENT_SET_NO":999,"REV_AT_EPOCH":89749,"BSTAR":0.00013186856,"MEAN_MOTION_DOT":6.25e-6,"MEAN_MOTION_DDOT":0},{"OBJECT_NAME":"COSMOS 2251 DEB","OBJECT_ID":"1993-036ADJ","EPOCH":"2026-03-02T12:49:03.152928","MEAN_MOTION":14.3466477,"ECCENTRICITY":0.0022013,"INCLINATION":74.0282,"RA_OF_ASC_NODE":136.2687,"ARG_OF_PERICENTER":231.8898,"MEAN_ANOMALY":187.6274,"EPHEMERIS_TYPE":0,"CLASSIFICATION_TYPE":"U","NORAD_CAT_ID":34913,"ELEMENT_SET_NO":999,"REV_AT_EPOCH":66332,"BSTAR":5.6950221e-5,"MEAN_MOTION_DOT":1.35e-6,"MEAN_MOTION_DDOT":0}]
