COSMOS 2251 DEB         
1 34857U 93036ACB 26061.75696328  .00004377  00000+0  89868-3 0  9991
2 34857  74.0163 314.1053 0063369  58.1836 358.9573 14.59679969890681
COSMOS 2251 DEB         
1 34859U 93036ACD 26061.72720110  .00203727  00000+0  66018-2 0  9998
2 34859  74.0279 171.6224 0013169 327.6622  32.3773 15.31004666895752
COSMOS 2251 DEB         
1 34861U 93036ACF 26061.55516322  .00046761  00000+0  26502-2 0  9997
2 34861  74.0142 246.5822 0003266 238.6359 177.5162 15.12761800892957
COSMOS 2251 DEB         
1 34874U 93036ACM 26061.66695308  .00002232  00000+0  75265-3 0  9991
2 34874  74.0381 286.9153 0051998 292.5459 126.2323 14.36821364881928
COSMOS 2251 DEB         
1 34875U 93036ACN 26061.61082179  .00001961  00000+0  52091-3 0  9993
2 34875  74.0464   8.5274 0013966 117.3571  62.9721 14.49248496889126
COSMOS 2251 DEB         
1 34878U 93036ACR 26059.97235134  .00000230  00000+0  24698-3 0  9993
2 34878  73.9631 283.1849 0435497 251.7923 172.7325 13.44293218823240
COSMOS 2251 DEB         
1 34882U 93036ACV 26061.44715331  .00000809  00000+0  16072-3 0  9994
2 34882  74.0440  73.1665 0082850 181.6409 178.4500 14.61776208896893
COSMOS 2251 DEB         
1 34883U 93036ACW 26061.58575294  .00016582  00000+0  37190-2 0  9990
2 34883  74.1971 273.5948 0091480  73.6708 287.4491 14.53986948875998
COSMOS 2251 DEB         
1 34884U 93036ACX 26061.69246223  .00029400  00000+0  26774-2 0  9999
2 34884  74.0128 255.9127 0003247 304.9926 132.8556 14.95035574889986
COSMOS 2251 DEB         
1 34885U 93036ACY 26061.35036424  .00003651  00000+0  90860-3 0  9991
2 34885  74.0317  33.0514 0012158 105.2698  17.8871 14.52041283886347
COSMOS 2251 DEB         
1 34886U 93036ACZ 26059.53862630  .00179856  00000+0  23827-2 0  9994
2 34886  73.9475  10.2626 0025743 182.5911 177.5177 15.57203569642012
COSMOS 2251 DEB         
1 34908U 93036ADD 26059.73881829  .00001703  00000+0  56942-3 0  9992
2 34908  74.0555 240.2847 0041240 239.9439 136.6851 14.37719310884005
COSMOS 2251 DEB         
1 34909U 93036ADE 26061.02109539  .00003413  00000+0  44629-3 0  9998
2 34909  74.0121 280.6262 0082296  34.8754 325.7774 14.78487500680234
COSMOS 2251 DEB         
1 34910U 93036ADF 26061.22602251  .00000922  00000+0  95347-3 0  9996
2 34910  73.8777 335.9808 0465684  81.2537  67.3080 13.37819504825878
COSMOS 2251 DEB         
1 34911U 93036ADG 26061.41455154  .00000625  00000+0  13187-3 0  9998
2 34911  74.0387  92.8787 0084263 199.8394 223.1742 14.59509377897494
COSMOS 2251 DEB         
1 34913U 93036ADJ 26061.53406427  .00000135  00000+0  56950-4 0  9994
2 34913  74.0282 136.2687 0022013 231.8898 187.6274 14.34664770663322
